start=new Date('2023-03-29T00:00:00.000Z').valueOf();
sats=[{"MEAN_ANOMALY":"276.8959","OBJECT_NAME":"STARLINK-1007","ECCENTRICITY":"0.00008920","TLE_LINE1":"1 44713U 19074A   23087.98217671  .00036167  00000-0  24320-2 0  9997","SEMIMAJOR_AXIS":"6925.230","COUNTRY_CODE":"US","MEAN_MOTION_DOT":"0.00036167","OBJECT_TYPE":"PAYLOAD","TIME_SYSTEM":"UTC","OBJECT_ID":"2019-074A","PERIAPSIS":"546.477","MEAN_MOTION":"15.06438630","REV_AT_EPOCH":"18663","TLE_LINE2":"2 44713  53.0546 340.1442 0000892  83.2131 276.8959 15.06438630186635","NORAD_CAT_ID":"44713","INCLINATION":"53.0546","EPHEMERIS_TYPE":"0","EPOCH":"2023-03-28T23:34:20.067744","ELEMENT_SET_NO":"999","SITE":"AFETR","BSTAR":"0.00243200000000","CLASSIFICATION_TYPE":"U","ARG_OF_PERICENTER":"83.2131","RA_OF_ASC_NODE":"340.1442","PERIOD":"95.590","FILE":"3873731","REF_FRAME":"TEME","CENTER_NAME":"EARTH","APOAPSIS":"547.713","GP_ID":"229039927","RCS_SIZE":"LARGE","LAUNCH_DATE":"2019-11-11","MEAN_ELEMENT_THEORY":"SGP4","DECAY_DATE":null,"MEAN_MOTION_DDOT":"0.0000000000000"},{"NORAD_CAT_ID":"44714","INCLINATION":"53.0545","EPHEMERIS_TYPE":"0","EPOCH":"2023-03-28T21:28:18.482304","SITE":"AFETR","ELEMENT_SET_NO":"999","BSTAR":"0.00222020000000","CLASSIFICATION_TYPE":"U","ARG_OF_PERICENTER":"98.9969","RA_OF_ASC_NODE":"340.5429","FILE":"3873921","PERIOD":"95.589","CENTER_NAME":"EARTH","REF_FRAME":"TEME","RCS_SIZE":"LARGE","GP_ID":"229061747","APOAPSIS":"547.772","LAUNCH_DATE":"2019-11-11","DECAY_DATE":null,"MEAN_ELEMENT_THEORY":"SGP4","MEAN_MOTION_DDOT":"0.0000000000000","MEAN_ANOMALY":"261.1138","OBJECT_NAME":"STARLINK-1008","ECCENTRICITY":"0.00010400","TLE_LINE1":"1 44714U 19074B   23087.89465836  .00032991  00000-0  22202-2 0  9994","SEMIMAJOR_AXIS":"6925.187","TIME_SYSTEM":"UTC","OBJECT_TYPE":"PAYLOAD","COUNTRY_CODE":"US","MEAN_MOTION_DOT":"0.00032991","OBJECT_ID":"2019-074B","PERIAPSIS":"546.332","REV_AT_EPOCH":"18645","MEAN_MOTION":"15.06452729","TLE_LINE2":"2 44714  53.0545 340.5429 0001040  98.9969 261.1138 15.06452729186453"},{"FILE":"3873717","PERIOD":"95.589","RA_OF_ASC_NODE":"340.2910","ARG_OF_PERICENTER":"97.6979","BSTAR":"0.00219810000000","CLASSIFICATION_TYPE":"U","SITE":"AFETR","ELEMENT_SET_NO":"999","EPOCH":"2023-03-28T22:47:55.712832","EPHEMERIS_TYPE":"0","NORAD_CAT_ID":"44715","INCLINATION":"53.0544","MEAN_MOTION_DDOT":"0.0000000000000","DECAY_DATE":null,"MEAN_ELEMENT_THEORY":"SGP4","LAUNCH_DATE":"2019-11-11","RCS_SIZE":"LARGE","GP_ID":"229039701","APOAPSIS":"547.606","REF_FRAME":"TEME","CENTER_NAME":"EARTH","TIME_SYSTEM":"UTC","OBJECT_TYPE":"PAYLOAD","COUNTRY_CODE":"US","MEAN_MOTION_DOT":"0.00032653","SEMIMAJOR_AXIS":"6925.203","TLE_LINE1":"1 44715U 19074C   23087.94995038  .00032653  00000-0  21981-2 0  9991","ECCENTRICITY":"0.00007770","OBJECT_NAME":"STARLINK-1009","MEAN_ANOMALY":"262.4098","TLE_LINE2":"2 44715  53.0544 340.2910 0000777  97.6979 262.4098 15.06447397186621","MEAN_MOTION":"15.06447397","REV_AT_EPOCH":"18662","PERIAPSIS":"546.530","OBJECT_ID":"2019-074C"},{"EPHEMERIS_TYPE":"0","NORAD_CAT_ID":"44716","INCLINATION":"53.0553","SITE":"AFETR","ELEMENT_SET_NO":"999","EPOCH":"2023-03-28T21:38:55.767840","ARG_OF_PERICENTER":"75.9860","CLASSIFICATION_TYPE":"U","BSTAR":"0.00211830000000","PERIOD":"95.589","FILE":"3873921","RA_OF_ASC_NODE":"340.5063","REF_FRAME":"TEME","CENTER_NAME":"EARTH","LAUNCH_DATE":"2019-11-11","GP_ID":"229061246","APOAPSIS":"547.842","RCS_SIZE":"LARGE","MEAN_MOTION_DDOT":"0.0000000000000","MEAN_ELEMENT_THEORY":"SGP4","DECAY_DATE":null,"OBJECT_NAME":"STARLINK-1010","MEAN_ANOMALY":"284.1252","ECCENTRICITY":"0.00011060","TLE_LINE1":"1 44716U 19074D   23087.90203435  .00031450  00000-0  21183-2 0  9999","COUNTRY_CODE":"US","OBJECT_TYPE":"PAYLOAD","MEAN_MOTION_DOT":"0.00031450","TIME_SYSTEM":"UTC","SEMIMAJOR_AXIS":"6925.211","OBJECT_ID":"2019-074D","MEAN_MOTION":"15.06444979","REV_AT_EPOCH":"18643","PERIAPSIS":"546.310","TLE_LINE2":"2 44716  53.0553 340.5063 0001106  75.9860 284.1252 15.06444979186434"},{"REV_AT_EPOCH":"18617","MEAN_MOTION":"15.06459921","PERIAPSIS":"546.218","OBJECT_ID":"2019-074E","TLE_LINE2":"2 44717  53.0554   0.5132 0001173  92.0131 268.0992 15.06459921186177","ECCENTRICITY":"0.00011730","OBJECT_NAME":"STARLINK-1011","MEAN_ANOMALY":"268.0992","TIME_SYSTEM":"UTC","MEAN_MOTION_DOT":"0.00034870","COUNTRY_CODE":"US","OBJECT_TYPE":"PAYLOAD","SEMIMAJOR_AXIS":"6925.165","TLE_LINE1":"1 44717U 19074E   23087.90018031  .00034870  00000-0  23445-2 0  9998","REF_FRAME":"TEME","CENTER_NAME":"EARTH","MEAN_MOTION_DDOT":"0.0000000000000","DECAY_DATE":null,"MEAN_ELEMENT_THEORY":"SGP4","LAUNCH_DATE":"2019-11-11","RCS_SIZE":"LARGE","GP_ID":"229061497","APOAPSIS":"547.842","SITE":"AFETR","ELEMENT_SET_NO":"999","EPOCH":"2023-03-28T21:36:15.578784","EPHEMERIS_TYPE":"0","NORAD_CAT_ID":"44717","INCLINATION":"53.0554","FILE":"3873921","PERIOD":"95.588","RA_OF_ASC_NODE":"0.5132","ARG_OF_PERICENTER":"92.0131","BSTAR":"0.00234450000000","CLASSIFICATION_TYPE":"U"},{"TLE_LINE2":"2 44718  53.0541 340.3384 0000744  99.7908 260.3165 15.06455932186622","PERIAPSIS":"546.527","MEAN_MOTION":"15.06455932","REV_AT_EPOCH":"18662","OBJECT_ID":"2019-074F","SEMIMAJOR_AXIS":"6925.177","TIME_SYSTEM":"UTC","MEAN_MOTION_DOT":"0.00033849","COUNTRY_CODE":"US","OBJECT_TYPE":"PAYLOAD","TLE_LINE1":"1 44718U 19074F   23087.93888699  .00033849  00000-0  22770-2 0  9992","ECCENTRICITY":"0.00007440","MEAN_ANOMALY":"260.3165","OBJECT_NAME":"STARLINK-1012","DECAY_DATE":null,"MEAN_ELEMENT_THEORY":"SGP4","MEAN_MOTION_DDOT":"0.0000000000000","RCS_SIZE":"LARGE","APOAPSIS":"547.557","GP_ID":"229039706","LAUNCH_DATE":"2019-11-11","REF_FRAME":"TEME","CENTER_NAME":"EARTH","RA_OF_ASC_NODE":"340.3384","FILE":"3873719","PERIOD":"95.589","CLASSIFICATION_TYPE":"U","BSTAR":"0.00227700000000","ARG_OF_PERICENTER":"99.7908","EPOCH":"2023-03-28T22:31:59.835936","ELEMENT_SET_NO":"999","SITE":"AFETR","INCLINATION":"53.0541","NORAD_CAT_ID":"44718","EPHEMERIS_TYPE":"0"},{"MEAN_MOTION_DDOT":"0.0000000000000","MEAN_ELEMENT_THEORY":"SGP4","DECAY_DATE":null,"LAUNCH_DATE":"2019-11-11","APOAPSIS":"547.727","GP_ID":"229039209","RCS_SIZE":"LARGE","REF_FRAME":"TEME","CENTER_NAME":"EARTH","PERIOD":"95.588","FILE":"3873719","RA_OF_ASC_NODE":"340.3046","ARG_OF_PERICENTER":"86.8324","BSTAR":"0.00195340000000","CLASSIFICATION_TYPE":"U","SITE":"AFETR","ELEMENT_SET_NO":"999","EPOCH":"2023-03-28T22:42:36.368928","EPHEMERIS_TYPE":"0","INCLINATION":"53.0531","NORAD_CAT_ID":"44719","TLE_LINE2":"2 44719  53.0531 340.3046 0001010  86.8324 273.2781 15.06460672186627","MEAN_MOTION":"15.06460672","REV_AT_EPOCH":"18662","PERIAPSIS":"546.328","OBJECT_ID":"2019-074G","COUNTRY_CODE":"US","MEAN_MOTION_DOT":"0.00028982","OBJECT_TYPE":"PAYLOAD","TIME_SYSTEM":"UTC","SEMIMAJOR_AXIS":"6925.163","TLE_LINE1":"1 44719U 19074G   23087.94625427  .00028982  00000-0  19534-2 0  9998","ECCENTRICITY":"0.00010100","OBJECT_NAME":"STARLINK-1013","MEAN_ANOMALY":"273.2781"},{"EPHEMERIS_TYPE":"0","NORAD_CAT_ID":"44720","INCLINATION":"53.0535","ELEMENT_SET_NO":"999","SITE":"AFETR","EPOCH":"2023-03-28T23:07:46.571808","ARG_OF_PERICENTER":"92.1833","BSTAR":"0.00027649000000","CLASSIFICATION_TYPE":"U","PERIOD":"95.591","FILE":"3873719","RA_OF_ASC_NODE":"340.2187","REF_FRAME":"TEME","CENTER_NAME":"EARTH","LAUNCH_DATE":"2019-11-11","GP_ID":"229039206","APOAPSIS":"548.102","RCS_SIZE":"LARGE","MEAN_MOTION_DDOT":"0.0000000000000","MEAN_ELEMENT_THEORY":"SGP4","DECAY_DATE":null,"OBJECT_NAME":"STARLINK-1014","MEAN_ANOMALY":"267.9308","ECCENTRICITY":"0.00013320","TLE_LINE1":"1 44720U 19074H   23087.96373347  .00003840  00000-0  27649-3 0  9996","OBJECT_TYPE":"PAYLOAD","COUNTRY_CODE":"US","MEAN_MOTION_DOT":"0.00003840","TIME_SYSTEM":"UTC","SEMIMAJOR_AXIS":"6925.315","OBJECT_ID":"2019-074H","REV_AT_EPOCH":"18663","MEAN_MOTION":"15.06411039","PERIAPSIS":"546.257","TLE_LINE2":"2 44720  53.0535 340.2187 0001332  92.1833 267.9308 15.06411039186639"},{"REV_AT_EPOCH":"18662","MEAN_MOTION":"15.06455391","PERIAPSIS":"546.279","OBJECT_ID":"2019-074J","TLE_LINE2":"2 44721  53.0546 340.2734 0001105  92.7755 267.3360 15.06455391186627","ECCENTRICITY":"0.00011050","OBJECT_NAME":"STARLINK-1015","MEAN_ANOMALY":"267.3360","OBJECT_TYPE":"PAYLOAD","COUNTRY_CODE":"US","MEAN_MOTION_DOT":"0.00028028","TIME_SYSTEM":"UTC","SEMIMAJOR_AXIS":"6925.179","TLE_LINE1":"1 44721U 19074J   23087.95362975  .00028028  00000-0  18902-2 0  9997","REF_FRAME":"TEME","CENTER_NAME":"EARTH","MEAN_MOTION_DDOT":"0.0000000000000","MEAN_ELEMENT_THEORY":"SGP4","DECAY_DATE":null,"LAUNCH_DATE":"2019-11-11","GP_ID":"229039225","APOAPSIS":"547.809","RCS_SIZE":"LARGE","SITE":"AFETR","ELEMENT_SET_NO":"999","EPOCH":"2023-03-28T22:53:13.610400","EPHEMERIS_TYPE":"0","NORAD_CAT_ID":"44721","INCLINATION":"53.0546","PERIOD":"95.589","FILE":"3873718","RA_OF_ASC_NODE":"340.2734","ARG_OF_PERICENTER":"92.7755","BSTAR":"0.00189020000000","CLASSIFICATION_TYPE":"U"},{"LAUNCH_DATE":"2019-11-11","RCS_SIZE":"LARGE","GP_ID":"229064000","APOAPSIS":"547.932","MEAN_MOTION_DDOT":"0.0000000000000","DECAY_DATE":null,"MEAN_ELEMENT_THEORY":"SGP4","REF_FRAME":"TEME","CENTER_NAME":"EARTH","ARG_OF_PERICENTER":"64.4801","CLASSIFICATION_TYPE":"U","BSTAR":"0.00212610000000","FILE":"3873921","PERIOD":"95.590","RA_OF_ASC_NODE":"340.4908","EPHEMERIS_TYPE":"0","NORAD_CAT_ID":"44723","INCLINATION":"53.0552","SITE":"AFETR","ELEMENT_SET_NO":"999","EPOCH":"2023-03-28T21:44:12.969024","TLE_LINE2":"2 44723  53.0552 340.4908 0001213  64.4801 295.6314 15.06439511186459","OBJECT_ID":"2019-074L","REV_AT_EPOCH":"18645","MEAN_MOTION":"15.06439511","PERIAPSIS":"546.252","TLE_LINE1":"1 44723U 19074L   23087.90570566  .00031563  00000-0  21261-2 0  9991","TIME_SYSTEM":"UTC","MEAN_MOTION_DOT":"0.00031563","COUNTRY_CODE":"US","OBJECT_TYPE":"PAYLOAD","SEMIMAJOR_AXIS":"6925.227","OBJECT_NAME":"STARLINK-1017","MEAN_ANOMALY":"295.6314","ECCENTRICITY":"0.00012130"}];
